CCSDS_OMM_VERS = 2.0
CREATION_DATE  = 
ORIGINATOR     = 

OBJECT_NAME    = STARLINK-36636
OBJECT_ID      = 2026-018Y
CENTER_NAME    = EARTH
REF_FRAME      = TEME
TIME_SYSTEM    = UTC
MEAN_ELEMENT_THEORY = SGP/SGP4

EPOCH          = 2026-02-22T04:00:01.999584
MEAN_MOTION    = 15.75218404
ECCENTRICITY   = .0001286
INCLINATION    = 97.2847
RA_OF_ASC_NODE = 118.2841
ARG_OF_PERICENTER = 78.4403
MEAN_ANOMALY   = 125.2600

EPHEMERIS_TYPE = 0
CLASSIFICATION_TYPE = U
NORAD_CAT_ID   = 67611
ELEMENT_SET_NO = 999
REV_AT_EPOCH   = 486
BSTAR          = -.35718E-3
MEAN_MOTION_DOT = -.53141E-3
MEAN_MOTION_DDOT = 0

CCSDS_OMM_VERS = 2.0
CREATION_DATE  = 
ORIGINATOR     = 

OBJECT_NAME    = STARLINK-36407
OBJECT_ID      = 2026-018Z
CENTER_NAME    = EARTH
REF_FRAME      = TEME
TIME_SYSTEM    = UTC
MEAN_ELEMENT_THEORY = SGP/SGP4

EPOCH          = 2026-02-22T00:00:02.998944
MEAN_MOTION    = 15.75264077
ECCENTRICITY   = .0001096
INCLINATION    = 97.2844
RA_OF_ASC_NODE = 118.0900
ARG_OF_PERICENTER = 81.2709
MEAN_ANOMALY   = 200.0113

EPHEMERIS_TYPE = 0
CLASSIFICATION_TYPE = U
NORAD_CAT_ID   = 67612
ELEMENT_SET_NO = 999
REV_AT_EPOCH   = 493
BSTAR          = -.51824E-3
MEAN_MOTION_DOT = -.7698E-3
MEAN_MOTION_DDOT = 0

CCSDS_OMM_VERS = 2.0
CREATION_DATE  = 
ORIGINATOR     = 

OBJECT_NAME    = STARLINK-36597
OBJECT_ID      = 2026-018AA
CENTER_NAME    = EARTH
REF_FRAME      = TEME
TIME_SYSTEM    = UTC
MEAN_ELEMENT_THEORY = SGP/SGP4

EPOCH          = 2026-02-22T03:00:55.007424
MEAN_MOTION    = 15.80967137
ECCENTRICITY   = .0001717
INCLINATION    = 97.2842
RA_OF_ASC_NODE = 118.2546
ARG_OF_PERICENTER = 116.4810
MEAN_ANOMALY   = 243.6634

EPHEMERIS_TYPE = 0
CLASSIFICATION_TYPE = U
NORAD_CAT_ID   = 67613
ELEMENT_SET_NO = 999
REV_AT_EPOCH   = 486
BSTAR          = .2279E-2
MEAN_MOTION_DOT = .4636E-2
MEAN_MOTION_DDOT = 0

CCSDS_OMM_VERS = 2.0
CREATION_DATE  = 
ORIGINATOR     = 

OBJECT_NAME    = NEONSAT-1A
OBJECT_ID      = 2026-019A
CENTER_NAME    = EARTH
REF_FRAME      = TEME
TIME_SYSTEM    = UTC
MEAN_ELEMENT_THEORY = SGP/SGP4

EPOCH          = 2026-02-21T22:01:26.896224
MEAN_MOTION    = 15.07648316
ECCENTRICITY   = .001241
INCLINATION    = 97.4100
RA_OF_ASC_NODE = 177.0614
ARG_OF_PERICENTER = 223.6108
MEAN_ANOMALY   = 136.4140

EPHEMERIS_TYPE = 0
CLASSIFICATION_TYPE = U
NORAD_CAT_ID   = 67614
ELEMENT_SET_NO = 999
REV_AT_EPOCH   = 344
BSTAR          = .18487E-3
MEAN_MOTION_DOT = .2761E-4
MEAN_MOTION_DDOT = 0

CCSDS_OMM_VERS = 2.0
CREATION_DATE  = 
ORIGINATOR     = 

OBJECT_NAME    = ELECTRON KICK STAGE R/B
OBJECT_ID      = 2026-019C
CENTER_NAME    = EARTH
REF_FRAME      = TEME
TIME_SYSTEM    = UTC
MEAN_ELEMENT_THEORY = SGP/SGP4

EPOCH          = 2026-02-21T08:03:58.066272
MEAN_MOTION    = 15.69685010
ECCENTRICITY   = .015799
INCLINATION    = 97.4030
RA_OF_ASC_NODE = 178.2923
ARG_OF_PERICENTER = 181.5976
MEAN_ANOMALY   = 178.4804

EPHEMERIS_TYPE = 0
CLASSIFICATION_TYPE = U
NORAD_CAT_ID   = 67616
ELEMENT_SET_NO = 999
REV_AT_EPOCH   = 347
BSTAR          = .20504E-2
MEAN_MOTION_DOT = .508639E-2
MEAN_MOTION_DDOT = .80473E-4

CCSDS_OMM_VERS = 2.0
CREATION_DATE  = 
ORIGINATOR     = 

OBJECT_NAME    = STARLINK-36548
OBJECT_ID      = 2026-020A
CENTER_NAME    = EARTH
REF_FRAME      = TEME
TIME_SYSTEM    = UTC
MEAN_ELEMENT_THEORY = SGP/SGP4

EPOCH          = 2026-02-21T21:43:16.356288
MEAN_MOTION    = 15.76379596
ECCENTRICITY   = .0001929
INCLINATION    = 42.9988
RA_OF_ASC_NODE = 238.2165
ARG_OF_PERICENTER = 251.0899
MEAN_ANOMALY   = 108.9762

EPHEMERIS_TYPE = 0
CLASSIFICATION_TYPE = U
NORAD_CAT_ID   = 67617
ELEMENT_SET_NO = 999
REV_AT_EPOCH   = 359
BSTAR          = .10698E-2
MEAN_MOTION_DOT = .177519E-2
MEAN_MOTION_DDOT = 0

CCSDS_OMM_VERS = 2.0
CREATION_DATE  = 
ORIGINATOR     = 

OBJECT_NAME    = STARLINK-36601
OBJECT_ID      = 2026-020B
CENTER_NAME    = EARTH
REF_FRAME      = TEME
TIME_SYSTEM    = UTC
MEAN_ELEMENT_THEORY = SGP/SGP4

EPOCH          = 2026-02-22T04:00:01.999584
MEAN_MOTION    = 15.78564695
ECCENTRICITY   = .0001344
INCLINATION    = 42.9997
RA_OF_ASC_NODE = 236.0094
ARG_OF_PERICENTER = 267.8471
MEAN_ANOMALY   = 25.5306

EPHEMERIS_TYPE = 0
CLASSIFICATION_TYPE = U
NORAD_CAT_ID   = 67618
ELEMENT_SET_NO = 999
REV_AT_EPOCH   = 489
BSTAR          = -.11439E-1
MEAN_MOTION_DOT = -.18045E-1
MEAN_MOTION_DDOT = 0

CCSDS_OMM_VERS = 2.0
CREATION_DATE  = 
ORIGINATOR     = 

OBJECT_NAME    = STARLINK-36119
OBJECT_ID      = 2026-020C
CENTER_NAME    = EARTH
REF_FRAME      = TEME
TIME_SYSTEM    = UTC
MEAN_ELEMENT_THEORY = SGP/SGP4

EPOCH          = 2026-02-21T09:30:12.971808
MEAN_MOTION    = 15.76552663
ECCENTRICITY   = .00018672
INCLINATION    = 42.9982
RA_OF_ASC_NODE = 241.2781
ARG_OF_PERICENTER = 260.5068
MEAN_ANOMALY   = 99.5591

EPHEMERIS_TYPE = 0
CLASSIFICATION_TYPE = U
NORAD_CAT_ID   = 67619
ELEMENT_SET_NO = 999
REV_AT_EPOCH   = 351
BSTAR          = .23650887E-2
MEAN_MOTION_DOT = .407066E-2
MEAN_MOTION_DDOT = 0

CCSDS_OMM_VERS = 2.0
CREATION_DATE  = 
ORIGINATOR     = 

OBJECT_NAME    = STARLINK-36607
OBJECT_ID      = 2026-020D
CENTER_NAME    = EARTH
REF_FRAME      = TEME
TIME_SYSTEM    = UTC
MEAN_ELEMENT_THEORY = SGP/SGP4

EPOCH          = 2026-02-22T04:00:01.999584
MEAN_MOTION    = 15.76383438
ECCENTRICITY   = .0001593
INCLINATION    = 42.9997
RA_OF_ASC_NODE = 236.1600
ARG_OF_PERICENTER = 261.7229
MEAN_ANOMALY   = 331.4974

EPHEMERIS_TYPE = 0
CLASSIFICATION_TYPE = U
NORAD_CAT_ID   = 67620
ELEMENT_SET_NO = 999
REV_AT_EPOCH   = 489
BSTAR          = -.10205E-4
MEAN_MOTION_DOT = -.215E-4
MEAN_MOTION_DDOT = 0

CCSDS_OMM_VERS = 2.0
CREATION_DATE  = 
ORIGINATOR     = 

OBJECT_NAME    = STARLINK-36615
OBJECT_ID      = 2026-020E
CENTER_NAME    = EARTH
REF_FRAME      = TEME
TIME_SYSTEM    = UTC
MEAN_ELEMENT_THEORY = SGP/SGP4

EPOCH          = 2026-02-21T20:39:23.627232
MEAN_MOTION    = 15.81965520
ECCENTRICITY   = .0002208
INCLINATION    = 42.9976
RA_OF_ASC_NODE = 237.8555
ARG_OF_PERICENTER = 232.7365
MEAN_ANOMALY   = 127.3306

EPHEMERIS_TYPE = 0
CLASSIFICATION_TYPE = U
NORAD_CAT_ID   = 67621
ELEMENT_SET_NO = 999
REV_AT_EPOCH   = 359
BSTAR          = .65939E-4
MEAN_MOTION_DOT = .1334E-3
MEAN_MOTION_DDOT = 0

CCSDS_OMM_VERS = 2.0
CREATION_DATE  = 
ORIGINATOR     = 

OBJECT_NAME    = STARLINK-36614
OBJECT_ID      = 2026-020F
CENTER_NAME    = EARTH
REF_FRAME      = TEME
TIME_SYSTEM    = UTC
MEAN_ELEMENT_THEORY = SGP/SGP4

EPOCH          = 2026-02-21T21:33:49.381344
MEAN_MOTION    = 15.76430058
ECCENTRICITY   = .0001583
INCLINATION    = 42.9993
RA_OF_ASC_NODE = 238.1617
ARG_OF_PERICENTER = 282.9634
MEAN_ANOMALY   = 77.1058

EPHEMERIS_TYPE = 0
CLASSIFICATION_TYPE = U
NORAD_CAT_ID   = 67622
ELEMENT_SET_NO = 999
REV_AT_EPOCH   = 359
BSTAR          = .1706E-2
MEAN_MOTION_DOT = .287771E-2
MEAN_MOTION_DDOT = 0

CCSDS_OMM_VERS = 2.0
CREATION_DATE  = 
ORIGINATOR     = 

OBJECT_NAME    = STARLINK-36600
OBJECT_ID      = 2026-020G
CENTER_NAME    = EARTH
REF_FRAME      = TEME
TIME_SYSTEM    = UTC
MEAN_ELEMENT_THEORY = SGP/SGP4

EPOCH          = 2026-02-21T21:36:58.635360
MEAN_MOTION    = 15.76462580
ECCENTRICITY   = .0001303
INCLINATION    = 42.9980
RA_OF_ASC_NODE = 238.1795
ARG_OF_PERICENTER = 301.3177
MEAN_ANOMALY   = 58.7565

EPHEMERIS_TYPE = 0
CLASSIFICATION_TYPE = U
NORAD_CAT_ID   = 67623
ELEMENT_SET_NO = 999
REV_AT_EPOCH   = 359
BSTAR          = .22214E-2
MEAN_MOTION_DOT = .379536E-2
MEAN_MOTION_DDOT = 0

