STARLINK-36636          
1 67611U 26018Y   26053.16668981 -.00053141  00000+0 -35718-3 0  9991
2 67611  97.2847 118.2841 0001286  78.4403 125.2600 15.75218404  4869
STARLINK-36407          
1 67612U 26018Z   26053.00003471 -.00076980  00000+0 -51824-3 0  9994
2 67612  97.2844 118.0900 0001096  81.2709 200.0113 15.75264077  4937
STARLINK-36597          
1 67613U 26018AA  26053.12563666  .00463600  00000+0  22790-2 0  9991
2 67613  97.2842 118.2546 0001717 116.4810 243.6634 15.80967137  4864
NEONSAT-1A              
1 67614U 26019A   26052.91767241  .00002761  00000+0  18487-3 0  9990
2 67614  97.4100 177.0614 0012410 223.6108 136.4140 15.07648316  3444
ELECTRON KICK STAGE R/B 
1 67616U 26019C   26052.33608873  .00508639  80473-4  20504-2 0  9997
2 67616  97.4030 178.2923 0157990 181.5976 178.4804 15.69685010  3478
STARLINK-36548          
1 67617U 26020A   26052.90505042  .00177519  00000+0  10698-2 0  9992
2 67617  42.9988 238.2165 0001929 251.0899 108.9762 15.76379596  3599
STARLINK-36601          
1 67618U 26020B   26053.16668981 -.01804500  00000+0 -11439-1 0  9997
2 67618  42.9997 236.0094 0001344 267.8471  25.5306 15.78564695  4899
STARLINK-36119          
1 67619U 26020C   26052.39598347  .00407066  00000+0  23651-2 0  9993
2 67619  42.9982 241.2781 0001867 260.5068  99.5591 15.76552663  3512
STARLINK-36607          
1 67620U 26020D   26053.16668981 -.00002150  00000+0 -10205-4 0  9993
2 67620  42.9997 236.1600 0001593 261.7229 331.4974 15.76383438  4898
STARLINK-36615          
1 67621U 26020E   26052.86069013  .00013340  00000+0  65939-4 0  9996
2 67621  42.9976 237.8555 0002208 232.7365 127.3306 15.81965520  3597
STARLINK-36614          
1 67622U 26020F   26052.89848821  .00287771  00000+0  17060-2 0  9993
2 67622  42.9993 238.1617 0001583 282.9634  77.1058 15.76430058  3594
STARLINK-36600          
1 67623U 26020G   26052.90067865  .00379536  00000+0  22214-2 0  9995
2 67623  42.9980 238.1795 0001303 301.3177  58.7565 15.76462580  3599
